[{"OBJECT_NAME":"CATCH-1","OBJECT_ID":"2024-116A","EPOCH":"2026-03-09T23:23:31.862976","MEAN_MOTION":14.84553399,"ECCENTRICITY":0.00043121,"INCLINATION":28.9968,"RA_OF_ASC_NODE":19.2665,"ARG_OF_PERICENTER":129.2844,"MEAN_ANOMALY":230.8133,"EPHEMERIS_TYPE":0,"CLASSIFICATION_TYPE":"U","NORAD_CAT_ID":60088,"ELEMENT_SET_NO":999,"REV_AT_EPOCH":9290,"BSTAR":0.00032499126,"MEAN_MOTION_DOT":2.929e-5,"MEAN_MOTION_DDOT":0},{"OBJECT_NAME":"CZ-6A DEB","OBJECT_ID":"2022-151AV","EPOCH":"2026-03-09T05:55:04.638144","MEAN_MOTION":14.68404871,"ECCENTRICITY":0.01006591,"INCLINATION":98.8687,"RA_OF_ASC_NODE":178.1247,"ARG_OF_PERICENTER":151.4065,"MEAN_ANOMALY":209.271,"EPHEMERIS_TYPE":0,"CLASSIFICATION_TYPE":"U","NORAD_CAT_ID":54302,"ELEMENT_SET_NO":999,"REV_AT_EPOCH":17602,"BSTAR":0.0021259404,"MEAN_MOTION_DOT":0.00013241,"MEAN_MOTION_DDOT":0}]
